OBJECT_NAME,OBJECT_ID,EPOCH,MEAN_MOTION,ECCENTRICITY,INCLINATION,RA_OF_ASC_NODE,ARG_OF_PERICENTER,MEAN_ANOMALY,EPHEMERIS_TYPE,CLASSIFICATION_TYPE,NORAD_CAT_ID,ELEMENT_SET_NO,REV_AT_EPOCH,BSTAR,MEAN_MOTION_DOT,MEAN_MOTION_DDOT
STARLINK-6037,2023-064P,2026-06-17T15:41:42.950976,14.98331989,.00035758,69.9992,252.2493,269.4461,90.6289,0,U,56461,999,17022,.64767836E-4,.68E-5,0
STARLINK-6045,2023-064Q,2026-06-18T03:24:15.961824,14.98330977,.00037275,69.9989,210.9722,268.7267,91.3466,0,U,56462,999,17128,.14289134E-4,.77E-6,0
STARLINK-6051,2023-064R,2026-06-18T07:07:02.000352,14.98331712,.00033234,69.9987,250.8727,266.2257,93.8522,0,U,56463,999,17031,-.269742E-5,-.125E-5,0
STARLINK-6043,2023-064S,2026-06-17T15:59:44.920896,14.98331557,.00033894,69.9992,252.2934,269.5239,90.5531,0,U,56464,999,17022,.35355134E-4,.329E-5,0
STARLINK-6054,2023-064T,2026-06-18T01:59:54.676608,14.98332759,.0003555,69.9991,211.1652,264.3431,95.7323,0,U,56465,999,17127,.36808093E-4,.346E-5,0
STARLINK-6053,2023-064U,2026-06-18T04:36:48.219264,14.98331663,.00034278,69.9994,250.9176,269.1604,90.9163,0,U,56466,999,17029,-.4375619E-5,-.145E-5,0
STARLINK-6055,2023-064V,2026-06-17T14:41:19.329792,14.98333896,.00034963,69.9985,232.6358,267.5708,92.5051,0,U,56467,999,17070,.11357353E-4,.42E-6,0
STARLINK-5998,2023-064W,2026-06-18T04:24:46.871712,14.98331520,.00034674,69.9988,250.8865,270.0634,90.0128,0,U,56468,999,17030,.16941448E-4,.109E-5,0
STARLINK-5518,2023-064X,2026-06-17T11:47:05.454240,14.98329740,.00033593,69.9987,233.0159,268.2354,91.8421,0,U,56469,999,17068,-.620508E-6,-.1E-5,0
STARLINK-5523,2023-064Y,2026-06-17T14:47:20.112864,14.98334363,.00031974,69.9986,232.6502,267.8099,92.2694,0,U,56470,999,17070,.697446E-5,-.1E-6,0
STARLINK-5521,2023-064Z,2026-06-17T14:35:19.305312,14.98326647,.0003305,69.9980,232.6202,269.9778,90.1002,0,U,56471,999,17070,.12902E-3,.1447E-4,0
STARLINK-5038,2023-064AA,2026-06-18T03:12:22.126752,14.98330158,.0003493,69.9983,231.2459,268.6392,91.4367,0,U,56472,999,17078,.20544228E-4,.152E-5,0
STARLINK-5524,2023-064AC,2026-06-18T06:54:41.334624,14.98329495,.00036901,69.9987,230.9824,254.5095,105.5657,0,U,56474,999,17080,.10724734E-4,.35E-6,0
STARLINK-5541,2023-064AD,2026-06-17T14:17:17.032992,14.98331754,.000346,69.9981,232.5740,269.8931,90.1832,0,U,56475,999,17070,.66165E-4,.697E-5,0
STARLINK-5545,2023-064AE,2026-06-17T14:29:18.286368,14.98331400,.0003361,69.9984,232.6056,268.8413,91.2361,0,U,56476,999,17070,.373E-4,.352E-5,0
STARLINK-5534,2023-064AF,2026-06-18T04:18:41.213952,14.98331243,.0003519,69.9984,231.0023,268.7219,91.3537,0,U,56477,999,17079,.19987395E-4,.145E-5,0
STARLINK-6041,2023-064AG,2026-06-17T14:11:16.293120,14.98330626,.0003504,69.9984,232.5614,268.7988,91.2770,0,U,56478,999,17070,.36388E-4,.341E-5,0
STARLINK-6044,2023-064AH,2026-06-17T11:59:04.330752,14.98330541,.00033657,69.9986,232.6406,268.7293,91.3480,0,U,56479,999,17069,.13975579E-4,.74E-6,0
STARLINK-6214,2023-064AJ,2026-06-18T01:55:38.567136,15.36742722,.00041882,69.9898,187.0853,280.3899,79.6807,0,U,56480,999,17188,.20420435E-3,.7221E-4,0
STARLINK-6222,2023-064AK,2026-06-17T12:11:05.726688,14.98329692,.00032619,69.9987,232.6698,269.2294,90.8491,0,U,56481,999,17069,.16418365E-4,.103E-5,0
STARLINK-6220,2023-064AL,2026-06-17T14:05:15.897120,14.98327746,.0003379,69.9985,232.5461,273.5156,86.5616,0,U,56482,999,17070,-.72607E-5,-.18E-5,0
STARLINK-5868,2023-064AM,2026-06-17T12:23:07.013760,14.98330117,.00034371,69.9985,232.6961,270.2431,89.8334,0,U,56483,999,17069,.41998131E-4,.408E-5,0
STARLINK-6221,2023-064AN,2026-06-17T12:17:06.434592,14.98329129,.00034371,69.9984,232.6847,268.3150,91.7615,0,U,56484,999,17068,.32756461E-4,.298E-5,0
STARLINK-6210,2023-064AP,2026-06-17T11:53:03.712704,14.98330528,.0003407,69.9986,232.6253,270.1662,89.9107,0,U,56485,999,17069,-.5381036E-5,-.157E-5,0
STARLINK-6196,2023-064AR,2026-06-17T13:04:50.177280,14.98338672,.0002951,69.9988,212.5334,262.3532,97.7292,0,U,56487,999,17119,.17177E-4,.112E-5,0
STARLINK-6204,2023-064AS,2026-06-18T02:54:00.950976,14.98339645,.00033929,69.9986,211.3291,267.4270,92.6500,0,U,56488,999,17127,-.26045125E-3,-.32E-4,0
STARLINK-5923,2023-064AT,2026-06-18T02:36:00.811872,14.98326870,.00036907,69.9987,211.2846,262.5963,97.4777,0,U,56489,999,17127,.43911139E-4,.431E-5,0
STARLINK-5873,2023-064AU,2026-06-18T03:06:02.104128,14.98331718,.00035198,69.9987,211.3564,268.0263,92.0493,0,U,56490,999,17127,.23209435E-4,.184E-5,0
STARLINK-5842,2023-064AV,2026-06-18T02:29:59.502624,14.98309468,.00027354,70.0008,211.2725,241.4770,118.6114,0,U,56491,999,17127,.27069824E-3,.3137E-4,0
STARLINK-5846,2023-064AW,2026-06-17T11:58:45.098976,14.98329939,.00033286,69.9989,212.7698,264.2776,95.8004,0,U,56492,999,17118,.10102692E-4,.27E-6,0
