STARLINK-6037           
1 56461U 23064P   26168.65396934  .00000680  00000+0  64768-4 0  9993
2 56461  69.9992 252.2493 0003575 269.4461  90.6289 14.98331989170228
STARLINK-6045           
1 56462U 23064Q   26169.14185141  .00000077  00000+0  14289-4 0  9998
2 56462  69.9989 210.9722 0003727 268.7267  91.3466 14.98330977171284
STARLINK-6051           
1 56463U 23064R   26169.29655093 -.00000125  00000+0 -26974-5 0  9994
2 56463  69.9987 250.8727 0003323 266.2257  93.8522 14.98331712170316
STARLINK-6043           
1 56464U 23064S   26168.66649214  .00000329  00000+0  35355-4 0  9999
2 56464  69.9992 252.2934 0003389 269.5239  90.5531 14.98331557170228
STARLINK-6054           
1 56465U 23064T   26169.08327172  .00000346  00000+0  36808-4 0  9996
2 56465  69.9991 211.1652 0003555 264.3431  95.7323 14.98332759171278
STARLINK-6053           
1 56466U 23064U   26169.19222476 -.00000145  00000+0 -43756-5 0  9990
2 56466  69.9994 250.9176 0003427 269.1604  90.9163 14.98331663170290
STARLINK-6055           
1 56467U 23064V   26168.61202928  .00000042  00000+0  11357-4 0  9992
2 56467  69.9985 232.6358 0003496 267.5708  92.5051 14.98333896170703
STARLINK-5998           
1 56468U 23064W   26169.18387583  .00000109  00000+0  16941-4 0  9995
2 56468  69.9988 250.8865 0003467 270.0634  90.0128 14.98331520170303
STARLINK-5518           
1 56469U 23064X   26168.49103535 -.00000100  00000+0 -62051-6 0  9990
2 56469  69.9987 233.0159 0003359 268.2354  91.8421 14.98329740170687
STARLINK-5523           
1 56470U 23064Y   26168.61620501 -.00000010  00000+0  69745-5 0  9998
2 56470  69.9986 232.6502 0003197 267.8099  92.2694 14.98334363170703
STARLINK-5521           
1 56471U 23064Z   26168.60786233  .00001447  00000+0  12902-3 0  9998
2 56471  69.9980 232.6202 0003305 269.9778  90.1002 14.98326647170709
STARLINK-5038           
1 56472U 23064AA  26169.13358943  .00000152  00000+0  20544-4 0  9995
2 56472  69.9983 231.2459 0003493 268.6392  91.4367 14.98330158170786
STARLINK-5524           
1 56474U 23064AC  26169.28797841  .00000035  00000+0  10725-4 0  9997
2 56474  69.9987 230.9824 0003690 254.5095 105.5657 14.98329495170801
STARLINK-5541           
1 56475U 23064AD  26168.59533603  .00000697  00000+0  66165-4 0  9998
2 56475  69.9981 232.5740 0003460 269.8931  90.1832 14.98331754170708
STARLINK-5545           
1 56476U 23064AE  26168.60368387  .00000352  00000+0  37300-4 0  9993
2 56476  69.9984 232.6056 0003361 268.8413  91.2361 14.98331400170704
STARLINK-5534           
1 56477U 23064AF  26169.17964368  .00000145  00000+0  19987-4 0  9999
2 56477  69.9984 231.0023 0003519 268.7219  91.3537 14.98331243170790
STARLINK-6041           
1 56478U 23064AG  26168.59116080  .00000341  00000+0  36388-4 0  9997
2 56478  69.9984 232.5614 0003504 268.7988  91.2770 14.98330626170703
STARLINK-6044           
1 56479U 23064AH  26168.49935568  .00000074  00000+0  13976-4 0  9998
2 56479  69.9986 232.6406 0003365 268.7293  91.3480 14.98330541170693
STARLINK-6214           
1 56480U 23064AJ  26169.08030749  .00007221  00000+0  20420-3 0  9995
2 56480  69.9898 187.0853 0004188 280.3899  79.6807 15.36742722171887
STARLINK-6222           
1 56481U 23064AK  26168.50770517  .00000103  00000+0  16418-4 0  9991
2 56481  69.9987 232.6698 0003261 269.2294  90.8491 14.98329692170693
STARLINK-6220           
1 56482U 23064AL  26168.58698955 -.00000180  00000+0 -72607-5 0  9995
2 56482  69.9985 232.5461 0003379 273.5156  86.5616 14.98327746170705
STARLINK-5868           
1 56483U 23064AM  26168.51605340  .00000408  00000+0  41998-4 0  9994
2 56483  69.9985 232.6961 0003437 270.2431  89.8334 14.98330117170694
STARLINK-6221           
1 56484U 23064AN  26168.51188003  .00000298  00000+0  32756-4 0  9996
2 56484  69.9984 232.6847 0003437 268.3150  91.7615 14.98329129170687
STARLINK-6210           
1 56485U 23064AP  26168.49518186 -.00000157  00000+0 -53810-5 0  9994
2 56485  69.9986 232.6253 0003407 270.1662  89.9107 14.98330528170698
STARLINK-6196           
1 56487U 23064AR  26168.54502520  .00000112  00000+0  17177-4 0  9991
2 56487  69.9988 212.5334 0002951 262.3532  97.7292 14.98338672171197
STARLINK-6204           
1 56488U 23064AS  26169.12084434 -.00003200  00000+0 -26045-3 0  9992
2 56488  69.9986 211.3291 0003392 267.4270  92.6500 14.98339645171276
STARLINK-5923           
1 56489U 23064AT  26169.10834273  .00000431  00000+0  43911-4 0  9998
2 56489  69.9987 211.2846 0003690 262.5963  97.4777 14.98326870171274
STARLINK-5873           
1 56490U 23064AU  26169.12919102  .00000184  00000+0  23209-4 0  9990
2 56490  69.9987 211.3564 0003519 268.0263  92.0493 14.98331718171271
STARLINK-5842           
1 56491U 23064AV  26169.10416091  .00003137  00000+0  27070-3 0  9998
2 56491  70.0008 211.2725 0002735 241.4770 118.6114 14.98309468171276
STARLINK-5846           
1 56492U 23064AW  26168.49913309  .00000027  00000+0  10103-4 0  9999
2 56492  69.9989 212.7698 0003328 264.2776  95.8004 14.98329939171184
